{
  "norad_id": 64557,
  "name": "CONNECTA IOT-11",
  "history": [
    {
      "epoch": "2026-03-28T13:21:28.071360",
      "apogee_km": 502.6405865785291,
      "perigee_km": 502.39260782288693,
      "latitude_deg": 82.34619999609316,
      "longitude_deg": -30.86880959989503,
      "semi_major_axis_km": 6880.653597200708,
      "eccentricity": 1.802e-05,
      "inclination_deg": 97.4609,
      "raan_deg": 203.6272,
      "arg_perigee_deg": 57.9904,
      "mean_anomaly_deg": 302.1349,
      "mean_motion_rev_day": 15.21101592
    }
  ]
}